NORAD_CAT_ID,OBJECT_NAME,OBJECT_TYPE,EPOCH,MEAN_MOTION,ECCENTRICITY,INCLINATION,RA_OF_ASC_NODE,ARG_OF_PERICENTER,MEAN_ANOMALY,BSTAR,MEAN_MOTION_DOT,MEAN_MOTION_DDOT,TLE_LINE0,TLE_LINE1,TLE_LINE2,SEMIMAJOR_AXIS,PERIOD,APOGEE,PERIGEE,DECAYED
55419.0,STARLINK-5629,PAYLOAD,2023-04-07 13:35:04,15.6993582,0.0003542,69.9978,264.4728,269.1137,90.9652,1.558e-06,-2.6e-07,0.0,0 STARLINK-5629,1 55419U 23014AE  23097.56602273 -.00000026  00000-0  15580-5 0  9999,2 55419  69.9978 264.4728 0003542 269.1137  90.9652 15.69935820 11483,6737.218,91.723,361.469,356.696,0.0
55419.0,STARLINK-5629,PAYLOAD,2023-04-07 18:10:20,15.69932119,0.0003719,69.9973,263.9349,270.3253,89.7517,-7.8681e-06,-1.159e-05,0.0,0 STARLINK-5629,1 55419U 23014AE  23097.75717620 -.00001159  00000-0 -78681-5 0  9993,2 55419  69.9973 263.9349 0003719 270.3253  89.7517 15.69932119 10573,6737.228,91.724,361.599,356.588,0.0
55419.0,STARLINK-5629,PAYLOAD,2023-04-08 03:20:52,15.6990305,0.0003211,69.9974,262.8604,275.8647,84.2182,-1.5618e-05,-2.088e-05,0.0,0 STARLINK-5629,1 55419U 23014AE  23098.13949994 -.00002088  00000-0 -15618-4 0  9999,2 55419  69.9974 262.8604 0003211 275.8647  84.2182 15.69903050 10637,6737.311,91.725,361.34,357.013,0.0
55419.0,STARLINK-5629,PAYLOAD,2023-04-08 10:59:37,15.69911675,0.0003492,69.9973,261.9638,268.6274,91.4521,-4.0017e-06,-6.94e-06,0.0,0 STARLINK-5629,1 55419U 23014AE  23098.45807702 -.00000694  00000-0 -40017-5 0  9997,2 55419  69.9973 261.9638 0003492 268.6274  91.4521 15.69911675 10684,6737.287,91.725,361.504,356.799,0.0
55419.0,STARLINK-5629,PAYLOAD,2023-04-08 12:31:21,15.69934803,0.0003564,69.9972,261.7846,266.649,93.4298,2.4975e-05,2.793e-05,0.0,0 STARLINK-5629,1 55419U 23014AE  23098.52177507  .00002793  00000-0  24975-4 0  9992,2 55419  69.9972 261.7846 0003564 266.6490  93.4298 15.69934803 11637,6737.221,91.724,361.487,356.684,0.0
55419.0,STARLINK-5629,PAYLOAD,2023-04-08 18:38:21,15.69947917,0.0003515,69.999,261.0675,263.8385,96.241,5.5634e-05,6.489e-05,0.0,0 STARLINK-5629,1 55419U 23014AE  23098.77663647  .00006489  00000-0  55634-4 0  9996,2 55419  69.9990 261.0675 0003515 263.8385  96.2410 15.69947917 10735,6737.183,91.723,361.416,356.68,0.0
55419.0,STARLINK-5629,PAYLOAD,2023-04-09 03:48:53,15.6991027,0.0003612,69.9991,259.9931,267.6753,92.4029,-1.6648e-05,-2.213e-05,0.0,0 STARLINK-5629,1 55419U 23014AE  23099.15895535 -.00002213  00000-0 -16648-4 0  9997,2 55419  69.9991 259.9931 0003612 267.6753  92.4029 15.69910270 10798,6737.291,91.725,361.589,356.722,0.0
55419.0,STARLINK-5629,PAYLOAD,2023-04-09 12:59:24,15.69920193,0.0003508,69.9991,258.9183,267.8309,92.2485,4.9854e-06,3.87e-06,0.0,0 STARLINK-5629,1 55419U 23014AE  23099.54125317  .00000387  00000-0  49854-5 0  9998,2 55419  69.9991 258.9183 0003508 267.8309  92.2485 15.69920193 11799,6737.262,91.724,361.491,356.764,0.0
55419.0,STARLINK-5629,PAYLOAD,2023-04-09 20:38:09,15.6995323,0.0003541,70.0003,258.0225,269.5408,90.5382,0.00012984,0.00015447,0.0,0 STARLINK-5629,1 55419U 23014AE  23099.85982693  .00015447  00000-0  12984-3 0  9995,2 55419  70.0003 258.0225 0003541 269.5408  90.5382 15.69953230 10907,6737.168,91.722,361.418,356.647,0.0
55419.0,STARLINK-5629,PAYLOAD,2023-04-10 04:16:55,15.69914455,0.0003682,70.0003,257.1264,267.7391,92.3383,-7.3014e-06,-1.09e-05,0.0,0 STARLINK-5629,1 55419U 23014AE  23100.17841910 -.00001090  00000-0 -73014-5 0  9993,2 55419  70.0003 257.1264 0003682 267.7391  92.3383 15.69914455 10959,6737.279,91.725,361.624,356.663,0.0
55419.0,STARLINK-5629,PAYLOAD,2023-04-10 11:55:40,15.69946364,0.0003703,70.0004,256.2305,270.3453,89.7318,0.00071241,0.0008642,0.0,0 STARLINK-5629,1 55419U 23014AE  23100.49700051  .00086420  00000-0  71241-3 0  9994,2 55419  70.0004 256.2305 0003703 270.3453  89.7318 15.69946364 11008,6737.187,91.723,361.547,356.558,0.0
55419.0,STARLINK-5629,PAYLOAD,2023-04-10 13:27:25,15.69950663,0.0003737,70.0004,256.0514,270.3648,89.7119,0.00063608,0.00077066,0.0,0 STARLINK-5629,1 55419U 23014AE  23100.56071668  .00077066  00000-0  63608-3 0  9991,2 55419  70.0004 256.0514 0003737 270.3648  89.7119 15.69950663 11951,6737.175,91.723,361.558,356.522,0.0
55419.0,STARLINK-5629,PAYLOAD,2023-04-10 21:06:11,15.69941071,0.0003726,70.0004,255.1563,276.6326,83.4445,0.00018701,0.00022351,0.0,0 STARLINK-5629,1 55419U 23014AE  23100.87929848  .00022351  00000-0  18701-3 0  9998,2 55419  70.0004 255.1563 0003726 276.6326  83.4445 15.69941071 12008,6737.203,91.723,361.578,356.557,0.0
55419.0,STARLINK-5629,PAYLOAD,2023-04-10 22:37:56,15.69951597,0.0003742,70.0004,254.977,275.5056,84.5713,0.00025253,0.00030298,0.0,0 STARLINK-5629,1 55419U 23014AE  23100.94301364  .00030298  00000-0  25253-3 0  9992,2 55419  70.0004 254.9770 0003742 275.5056  84.5713 15.69951597 11071,6737.172,91.723,361.559,356.516,0.0
55419.0,STARLINK-5629,PAYLOAD,2023-04-11 12:23:42,15.6993192,0.0003827,70.0005,253.3648,270.2495,89.8262,0.00021696,0.00025966,0.0,0 STARLINK-5629,1 55419U 23014AE  23101.51646955  .00025966  00000-0  21696-3 0  9997,2 55419  70.0005 253.3648 0003827 270.2495  89.8262 15.69931920 12102,6737.229,91.724,361.672,356.515,0.0
55419.0,STARLINK-5629,PAYLOAD,2023-04-11 16:58:58,15.69950852,0.0003871,70.0004,252.8276,271.6938,88.3815,0.00039636,0.00047775,0.0,0 STARLINK-5629,1 55419U 23014AE  23101.70761862  .00047775  00000-0  39636-3 0  9998,2 55419  70.0004 252.8276 0003871 271.6938  88.3815 15.69950852 12134,6737.175,91.723,361.648,356.432,0.0
55419.0,STARLINK-5629,PAYLOAD,2023-04-12 09:48:14,15.69941208,0.0002813,69.9999,250.8567,274.1064,85.9811,0.00027331,0.00032799,0.0,0 STARLINK-5629,1 55419U 23014AE  23102.40850420  .00032799  00000-0  27331-3 0  9994,2 55419  69.9999 250.8567 0002813 274.1064  85.9811 15.69941208 11300,6737.202,91.723,360.962,357.172,0.0
55419.0,STARLINK-5629,PAYLOAD,2023-04-12 11:19:59,15.69939435,0.0003001,70.0002,250.678,271.2049,88.8803,0.00015411,0.00018369,0.0,0 STARLINK-5629,1 55419U 23014AE  23102.47221975  .00018369  00000-0  15411-3 0  9991,2 55419  70.0002 250.6780 0003001 271.2049  88.8803 15.69939435 12251,6737.207,91.723,361.094,357.05,0.0
55419.0,STARLINK-5629,PAYLOAD,2023-04-13 08:44:31,15.69929412,0.0003262,69.9998,248.1694,274.001,86.0813,0.00013826,0.00016448,0.0,0 STARLINK-5629,1 55419U 23014AE  23103.36425465  .00016448  00000-0  13826-3 0  9994,2 55419  69.9998 248.1694 0003262 274.0010  86.0813 15.69929412 12396,6737.236,91.724,361.299,356.903,0.0
55419.0,STARLINK-5629,PAYLOAD,2023-04-13 16:23:16,15.69936283,0.0003655,70.0009,247.2757,267.6944,92.3833,9.1219e-05,0.00010776,0.0,0 STARLINK-5629,1 55419U 23014AE  23103.68283512  .00010776  00000-0  91219-4 0  9995,2 55419  70.0009 247.2757 0003655 267.6944  92.3833 15.69936283 11500,6737.216,91.723,361.544,356.619,0.0
55419.0,STARLINK-5629,PAYLOAD,2023-04-14 12:16:03,15.69928959,0.0003323,69.9994,244.9457,270.4166,89.6649,5.1077e-05,5.934e-05,0.0,0 STARLINK-5629,1 55419U 23014AE  23104.51115424  .00005934  00000-0  51077-4 0  9992,2 55419  69.9994 244.9457 0003323 270.4166  89.6649 15.69928959 11630,6737.237,91.724,361.341,356.863,0.0
55419.0,STARLINK-5629,PAYLOAD,2023-04-15 12:44:05,15.69923451,0.0003494,69.9995,242.0794,270.6542,89.4253,1.3269e-05,1.383e-05,0.0,0 STARLINK-5629,1 55419U 23014AE  23105.53062440  .00001383  00000-0  13269-4 0  9999,2 55419  69.9995 242.0794 0003494 270.6542  89.4253 15.69923451 11791,6737.253,91.724,361.472,356.764,0.0
55419.0,STARLINK-5629,PAYLOAD,2023-04-15 18:51:06,15.69934537,0.0003178,69.9983,241.3635,267.5419,92.5413,4.5792e-05,5.299e-05,0.0,0 STARLINK-5629,1 55419U 23014AE  23105.78548769  .00005299  00000-0  45792-4 0  9995,2 55419  69.9983 241.3635 0003178 267.5419  92.5413 15.69934537 11836,6737.221,91.724,361.227,356.945,0.0
55419.0,STARLINK-5629,PAYLOAD,2023-04-16 11:40:22,15.69924567,0.0002977,70.0002,239.3934,271.2213,88.8641,1.5477e-05,1.649e-05,0.0,0 STARLINK-5629,1 55419U 23014AE  23106.48637593  .00001649  00000-0  15477-4 0  9999,2 55419  70.0002 239.3934 0002977 271.2213  88.8641 15.69924567 11945,6737.25,91.724,361.12,357.109,0.0
55419.0,STARLINK-5629,PAYLOAD,2023-04-16 17:47:23,15.69929348,0.0002673,70.0014,238.678,266.9455,93.1435,3.7916e-05,4.35e-05,0.0,0 STARLINK-5629,1 55419U 23014AE  23106.74124157  .00004350  00000-0  37916-4 0  9999,2 55419  70.0014 238.6780 0002673 266.9455  93.1435 15.69929348 12922,6737.236,91.724,360.902,357.3,0.0
55419.0,STARLINK-5629,PAYLOAD,2023-04-17 12:08:24,15.69927682,0.0002617,70.003,236.5301,241.8038,118.2893,2.5327e-05,2.834e-05,0.0,0 STARLINK-5629,1 55419U 23014AE  23107.50584123  .00002834  00000-0  25327-4 0  9995,2 55419  70.0030 236.5301 0002617 241.8038 118.2893 15.69927682 12109,6737.241,91.724,360.869,357.343,0.0
55419.0,STARLINK-5629,PAYLOAD,2023-04-17 18:15:25,15.69921764,0.0002536,70.0011,235.8099,277.0471,83.0436,1.1663e-05,1.19e-05,0.0,0 STARLINK-5629,1 55419U 23014AE  23107.76071383  .00001190  00000-0  11663-4 0  9994,2 55419  70.0011 235.8099 0002536 277.0471  83.0436 15.69921764 13081,6737.258,91.724,360.831,357.414,0.0
55419.0,STARLINK-5629,PAYLOAD,2023-04-18 09:32:56,15.69923628,0.0003506,70.0006,234.0181,275.0366,85.043,6.8596e-06,6.12e-06,0.0,0 STARLINK-5629,1 55419U 23014AE  23108.39787896  .00000612  00000-0  68596-5 0  9993,2 55419  70.0006 234.0181 0003506 275.0366  85.0430 15.69923628 13185,6737.252,91.724,361.48,356.755,0.0
55419.0,STARLINK-5629,PAYLOAD,2023-04-18 17:11:42,15.69928293,0.0003202,70.0008,233.1218,274.7056,85.3774,2.1326e-05,2.353e-05,0.0,0 STARLINK-5629,1 55419U 23014AE  23108.71646115  .00002353  00000-0  21326-4 0  9990,2 55419  70.0008 233.1218 0003202 274.7056  85.3774 15.69928293 13236,6737.239,91.724,361.261,356.947,0.0
55419.0,STARLINK-5629,PAYLOAD,2023-04-19 17:40:33,15.68947561,0.0003379,70.0019,230.2586,267.4927,92.5881,-0.0020495,-0.00230533,0.0,0 STARLINK-5629,1 55419U 23014AE  23109.73649348 -.00230533  00000-0 -20495-2 0  9993,2 55419  70.0019 230.2586 0003379 267.4927  92.5881 15.68947561 12455,6740.046,91.781,364.189,359.634,0.0
